0 THORAD DELTA 1 DEB
1 08183U 74089AZ  13282.34849167  .00000028  00000-0  52046-3 0  3169
2 08183 100.8141 244.4005 0106591 065.8229 103.0228 12.32564511750031
0 THORAD DELTA 1 DEB
1 08183U 74089AZ  13287.45125995 -.00000009  00000-0  22347-3 0  3185
2 08183 100.8151 248.8756 0106611 056.0519 065.1292 12.32565192750664
0 THORAD DELTA 1 DEB
1 08183U 74089AZ  13290.11566992  .00000002  00000-0  30932-3 0  3190
2 08183 100.8160 251.2122 0106598 050.9488 007.7111 12.32565206750995
0 THORAD DELTA 1 DEB
1 08183U 74089AZ  13292.48267543  .00000016  00000-0  42326-3 0  3209
2 08183 100.8166 253.2883 0106628 046.4245 070.6343 12.32565345751285
0 THORAD DELTA 1 DEB
1 08183U 74089AZ  13294.82504229  .00000035  00000-0  58209-3 0  3213
2 08183 100.8169 255.3432 0106640 041.9412 024.2374 12.32565656751577
